NORAD_CAT_ID,OBJECT_NAME,OBJECT_TYPE,EPOCH,MEAN_MOTION,ECCENTRICITY,INCLINATION,RA_OF_ASC_NODE,ARG_OF_PERICENTER,MEAN_ANOMALY,BSTAR,MEAN_MOTION_DOT,MEAN_MOTION_DDOT,TLE_LINE0,TLE_LINE1,TLE_LINE2,SEMIMAJOR_AXIS,PERIOD,APOGEE,PERIGEE,DECAYED
53571.0,STARLINK-4584,PAYLOAD,2024-01-21 22:47:58,15.08837062,0.0001406,53.216,305.4813,94.9985,265.1168,-2.1797e-05,-6.35e-06,0.0,0 STARLINK-4584,1 53571U 22101AW  24021.94998299 -.00000635  00000-0 -21797-4 0  9991,2 53571  53.2160 305.4813 0001406  94.9985 265.1168 15.08837062 79723,6917.889,95.438,540.727,538.782,0.0
53571.0,STARLINK-4584,PAYLOAD,2024-01-22 00:23:21,15.08837153,0.0001396,53.2159,305.1839,94.1393,265.9759,-1.5363e-05,-5.32e-06,0.0,0 STARLINK-4584,1 53571U 22101AW  24022.01622306 -.00000532  00000-0 -15363-4 0  9991,2 53571  53.2159 305.1839 0001396  94.1393 265.9759 15.08837153 79049,6917.889,95.438,540.72,538.788,0.0
53571.0,STARLINK-4584,PAYLOAD,2024-01-22 05:09:30,15.08840825,0.0001444,53.2159,304.2906,100.4257,259.6898,8.7877e-05,1.111e-05,0.0,0 STARLINK-4584,1 53571U 22101AW  24022.21494144  .00001111  00000-0  87877-4 0  9991,2 53571  53.2159 304.2906 0001444 100.4257 259.6898 15.08840825 79761,6917.878,95.438,540.742,538.744,0.0
53571.0,STARLINK-4584,PAYLOAD,2024-01-22 22:38:45,15.08837072,0.0001472,53.2163,301.0164,110.1607,249.9544,2.1028e-05,4.7e-07,0.0,0 STARLINK-4584,1 53571U 22101AW  24022.94358475  .00000047  00000-0  21028-4 0  9990,2 53571  53.2163 301.0164 0001472 110.1607 249.9544 15.08837072 79877,6917.889,95.438,540.773,538.736,0.0
53571.0,STARLINK-4584,PAYLOAD,2024-01-23 01:49:31,15.08842559,0.0001666,53.217,300.4211,100.2713,259.8467,5.2675e-05,5.5e-06,0.0,0 STARLINK-4584,1 53571U 22101AW  24023.07606319  .00000550  00000-0  52675-4 0  9999,2 53571  53.2170 300.4211 0001666 100.2713 259.8467 15.08842559 79201,6917.873,95.437,540.89,538.585,0.0
53571.0,STARLINK-4584,PAYLOAD,2024-01-23 22:29:32,15.08845085,0.0001603,53.217,296.557,83.875,276.2425,0.0001573,2.217e-05,0.0,0 STARLINK-4584,1 53571U 22101AW  24023.93718399  .00002217  00000-0  15730-3 0  9998,2 53571  53.2170 296.5570 0001603  83.8750 276.2425 15.08845085 80028,6917.865,95.437,540.839,538.621,0.0
53571.0,STARLINK-4584,PAYLOAD,2024-01-24 01:40:18,15.08847369,0.0001773,53.2172,295.9628,67.042,293.0759,0.0002716,4.038e-05,0.0,0 STARLINK-4584,1 53571U 22101AW  24024.06966413  .00004038  00000-0  27160-3 0  9998,2 53571  53.2172 295.9628 0001773  67.0420 293.0759 15.08847369 80049,6917.858,95.437,540.949,538.496,0.0
53571.0,STARLINK-4584,PAYLOAD,2024-01-24 22:20:19,15.08843402,0.0001562,53.2162,292.1001,81.8391,278.2778,7.1416e-05,8.49e-06,0.0,0 STARLINK-4584,1 53571U 22101AW  24024.93078569  .00000849  00000-0  71416-4 0  9990,2 53571  53.2162 292.1001 0001562  81.8391 278.2778 15.08843402 80173,6917.87,95.437,540.816,538.654,0.0
53571.0,STARLINK-4584,PAYLOAD,2024-01-24 23:55:43,15.08840855,0.0001971,53.2177,291.803,62.7579,297.3613,8.598e-05,1.08e-05,0.0,0 STARLINK-4584,1 53571U 22101AW  24024.99702872  .00001080  00000-0  85980-4 0  9996,2 53571  53.2177 291.8030 0001971  62.7579 297.3613 15.08840855 79499,6917.878,95.438,541.106,538.379,0.0
53571.0,STARLINK-4584,PAYLOAD,2024-01-25 22:11:07,15.08838004,0.0001414,53.2139,287.6436,79.3874,280.7277,-2.7524e-05,-7.26e-06,0.0,0 STARLINK-4584,1 53571U 22101AW  24025.92439070 -.00000726  00000-0 -27524-4 0  9995,2 53571  53.2139 287.6436 0001414  79.3874 280.7277 15.08838004 80323,6917.886,95.438,540.73,538.773,0.0
53571.0,STARLINK-4584,PAYLOAD,2024-01-25 23:46:30,15.08838727,0.0001409,53.2145,287.3444,89.6126,270.5027,-2.9841e-05,-7.63e-06,0.0,0 STARLINK-4584,1 53571U 22101AW  24025.99062990 -.00000763  00000-0 -29841-4 0  9990,2 53571  53.2145 287.3444 0001409  89.6126 270.5027 15.08838727 79649,6917.884,95.438,540.724,538.775,0.0
53571.0,STARLINK-4584,PAYLOAD,2024-01-26 23:37:17,15.08844734,0.0001431,53.2164,282.8812,84.1353,275.9803,5.2775e-05,5.52e-06,0.0,0 STARLINK-4584,1 53571U 22101AW  24026.98422973  .00000552  00000-0  52775-4 0  9997,2 53571  53.2164 282.8812 0001431  84.1353 275.9803 15.08844734 80486,6917.866,95.437,540.721,538.741,0.0
53571.0,STARLINK-4584,PAYLOAD,2024-01-27 20:17:18,15.08841971,0.0001458,53.2165,279.0147,86.1135,274.0024,0.0001327,1.825e-05,0.0,0 STARLINK-4584,1 53571U 22101AW  24027.84535158  .00001825  00000-0  13270-3 0  9993,2 53571  53.2165 279.0147 0001458  86.1135 274.0024 15.08841971 79927,6917.874,95.437,540.748,538.731,0.0
53571.0,STARLINK-4584,PAYLOAD,2024-01-27 21:52:41,15.08841792,0.000148,53.2164,278.7177,82.7982,277.3179,0.00012596,1.717e-05,0.0,0 STARLINK-4584,1 53571U 22101AW  24027.91159109  .00001717  00000-0  12596-3 0  9999,2 53571  53.2164 278.7177 0001480  82.7982 277.3179 15.08841792 80629,6917.875,95.437,540.764,538.716,0.0
53571.0,STARLINK-4584,PAYLOAD,2024-01-27 23:28:04,15.08844279,0.0001516,53.2166,278.4195,84.4279,275.6886,0.00014117,1.96e-05,0.0,0 STARLINK-4584,1 53571U 22101AW  24027.97782908  .00001960  00000-0  14117-3 0  9995,2 53571  53.2166 278.4195 0001516  84.4279 275.6886 15.08844279 80636,6917.867,95.437,540.781,538.684,0.0
53571.0,STARLINK-4584,PAYLOAD,2024-01-28 20:08:05,15.08839,0.000172,53.217,274.5559,117.7849,242.3318,5.1266e-05,5.28e-06,0.0,0 STARLINK-4584,1 53571U 22101AW  24028.83895477  .00000528  00000-0  51266-4 0  9993,2 53571  53.2170 274.5559 0001720 117.7849 242.3318 15.08839000 80077,6917.883,95.438,540.938,538.559,0.0
53571.0,STARLINK-4584,PAYLOAD,2024-01-28 21:43:28,15.08838852,0.0001689,53.2173,274.2592,116.3307,243.7859,4.6125e-05,4.46e-06,0.0,0 STARLINK-4584,1 53571U 22101AW  24028.90519497  .00000446  00000-0  46125-4 0  9993,2 53571  53.2173 274.2592 0001689 116.3307 243.7859 15.08838852 80778,6917.884,95.438,540.917,538.58,0.0
53571.0,STARLINK-4584,PAYLOAD,2024-01-28 23:18:52,15.08839055,0.0001535,53.217,273.9611,109.0229,251.093,3.7868e-05,3.15e-06,0.0,0 STARLINK-4584,1 53571U 22101AW  24028.97143519  .00000315  00000-0  37868-4 0  9997,2 53571  53.2170 273.9611 0001535 109.0229 251.0930 15.08839055 80784,6917.883,95.438,540.81,538.686,0.0
53571.0,STARLINK-4584,PAYLOAD,2024-01-30 19:49:39,15.08846623,0.0001547,53.2169,265.634,104.4754,255.641,9.6679e-05,1.251e-05,0.0,0 STARLINK-4584,1 53571U 22101AW  24030.82614762  .00001251  00000-0  96679-4 0  9992,2 53571  53.2169 265.6340 0001547 104.4754 255.6410 15.08846623 80371,6917.86,95.437,540.795,538.655,0.0
53571.0,STARLINK-4584,PAYLOAD,2024-01-30 21:25:02,15.08843643,0.0001246,53.2162,265.3349,97.735,262.3784,9.2809e-05,1.19e-05,0.0,0 STARLINK-4584,1 53571U 22101AW  24030.89238994  .00001190  00000-0  92809-4 0  9991,2 53571  53.2162 265.3349 0001246  97.7350 262.3784 15.08843643 81078,6917.869,95.437,540.596,538.872,0.0
53571.0,STARLINK-4584,PAYLOAD,2024-01-31 00:35:48,15.0884431,0.0001291,53.2163,264.7395,103.2152,256.8985,9.7747e-05,1.268e-05,0.0,0 STARLINK-4584,1 53571U 22101AW  24031.02486888  .00001268  00000-0  97747-4 0  9996,2 53571  53.2163 264.7395 0001291 103.2152 256.8985 15.08844310 81091,6917.867,95.437,540.625,538.839,0.0
53571.0,STARLINK-4584,PAYLOAD,2024-02-01 00:26:36,15.08837454,0.000152,53.2164,260.2815,117.0832,243.0316,-2.1481e-06,-3.22e-06,0.0,0 STARLINK-4584,1 53571U 22101AW  24032.01847444 -.00000322  00000-0 -21481-5 0  9990,2 53571  53.2164 260.2815 0001520 117.0832 243.0316 15.08837454 80550,6917.888,95.438,540.805,538.702,0.0
53571.0,STARLINK-4584,PAYLOAD,2024-02-01 16:20:27,15.08838773,0.000178,53.2178,257.3106,107.753,252.3657,6.5954e-05,7.62e-06,0.0,0 STARLINK-4584,1 53571U 22101AW  24032.68087467  .00000762  00000-0  65954-4 0  9992,2 53571  53.2178 257.3106 0001780 107.7530 252.3657 15.08838773 81348,6917.884,95.438,540.981,538.518,0.0
53571.0,STARLINK-4584,PAYLOAD,2024-02-02 14:35:51,15.0884319,0.0001435,53.2163,253.1453,95.1473,264.9683,5.0826e-05,5.21e-06,0.0,0 STARLINK-4584,1 53571U 22101AW  24033.60823173  .00000521  00000-0  50826-4 0  9992,2 53571  53.2163 253.1453 0001435  95.1473 264.9683 15.08843190 81486,6917.871,95.437,540.728,538.743,0.0
53571.0,STARLINK-4584,PAYLOAD,2024-02-02 19:22:00,15.08840836,0.0001531,53.2156,252.2522,99.6559,260.4606,9.3639e-05,1.203e-05,0.0,0 STARLINK-4584,1 53571U 22101AW  24033.80695336  .00001203  00000-0  93639-4 0  9999,2 53571  53.2156 252.2522 0001531  99.6559 260.4606 15.08840836 80823,6917.878,95.438,540.802,538.684,0.0
53571.0,STARLINK-4584,PAYLOAD,2024-02-02 20:57:23,15.08840484,0.0001444,53.2157,251.9552,94.6411,265.4746,9.483e-05,1.222e-05,0.0,0 STARLINK-4584,1 53571U 22101AW  24033.87319346  .00001222  00000-0  94830-4 0  9995,2 53571  53.2157 251.9552 0001444  94.6411 265.4746 15.08840484 81525,6917.879,95.438,540.743,538.745,0.0
53571.0,STARLINK-4584,PAYLOAD,2024-02-03 00:08:10,15.08842152,0.0001375,53.2151,251.3595,90.391,269.724,0.00010965,1.458e-05,0.0,0 STARLINK-4584,1 53571U 22101AW  24034.00567197  .00001458  00000-0  10965-3 0  9997,2 53571  53.2151 251.3595 0001375  90.3910 269.7240 15.08842152 81542,6917.874,95.437,540.69,538.788,0.0
53571.0,STARLINK-4584,PAYLOAD,2024-02-03 20:48:11,15.08839648,0.0001392,53.2148,247.4929,97.6402,262.4748,3.7639e-05,3.11e-06,0.0,0 STARLINK-4584,1 53571U 22101AW  24034.86679557  .00000311  00000-0  37639-4 0  9990,2 53571  53.2148 247.4929 0001392  97.6402 262.4748 15.08839648 81673,6917.881,95.438,540.709,538.783,0.0
53571.0,STARLINK-4584,PAYLOAD,2024-02-03 23:58:57,15.08840057,0.0001384,53.2147,246.898,97.4005,262.7144,3.859e-05,3.26e-06,0.0,0 STARLINK-4584,1 53571U 22101AW  24034.99927519  .00000326  00000-0  38590-4 0  9991,2 53571  53.2147 246.8980 0001384  97.4005 262.7144 15.08840057 81006,6917.88,95.438,540.703,538.788,0.0
53571.0,STARLINK-4584,PAYLOAD,2024-02-04 20:38:58,15.08841681,0.00014,53.2154,243.0315,100.8998,259.2151,3.0595e-05,1.99e-06,0.0,0 STARLINK-4584,1 53571U 22101AW  24035.86039426  .00000199  00000-0  30595-4 0  9994,2 53571  53.2154 243.0315 0001400 100.8998 259.2151 15.08841681 81827,6917.875,95.437,540.709,538.772,0.0
